[{"OBJECT_NAME":"STARLINK-34668","OBJECT_ID":"2025-150AA","EPOCH":"2026-03-09T12:29:16.699488","MEAN_MOTION":14.98347824,"ECCENTRICITY":0.000305,"INCLINATION":70.0026,"RA_OF_ASC_NODE":134.7911,"ARG_OF_PERICENTER":263.5528,"MEAN_ANOMALY":96.5283,"EPHEMERIS_TYPE":0,"CLASSIFICATION_TYPE":"U","NORAD_CAT_ID":64814,"ELEMENT_SET_NO":999,"REV_AT_EPOCH":3649,"BSTAR":0.00040691444,"MEAN_MOTION_DOT":4.768e-5,"MEAN_MOTION_DDOT":0},{"OBJECT_NAME":"NIGERIASAT-1","OBJECT_ID":"2003-042C","EPOCH":"2026-03-09T23:18:28.284480","MEAN_MOTION":14.90021828,"ECCENTRICITY":0.00412391,"INCLINATION":98.0062,"RA_OF_ASC_NODE":259.4679,"ARG_OF_PERICENTER":255.6174,"MEAN_ANOMALY":104.0464,"EPHEMERIS_TYPE":0,"CLASSIFICATION_TYPE":"U","NORAD_CAT_ID":27941,"ELEMENT_SET_NO":999,"REV_AT_EPOCH":20905,"BSTAR":0.0001905973,"MEAN_MOTION_DOT":1.807e-5,"MEAN_MOTION_DDOT":0}]
